OBJECT_NAME,OBJECT_ID,EPOCH,MEAN_MOTION,ECCENTRICITY,INCLINATION,RA_OF_ASC_NODE,ARG_OF_PERICENTER,MEAN_ANOMALY,EPHEMERIS_TYPE,CLASSIFICATION_TYPE,NORAD_CAT_ID,ELEMENT_SET_NO,REV_AT_EPOCH,BSTAR,MEAN_MOTION_DOT,MEAN_MOTION_DDOT
STARLINK-33623,2025-035W,2026-06-06T06:31:40.670400,15.27607141,.00007145,42.9978,7.1272,24.1393,335.9492,0,U,63072,999,7327,.93104373E-3,.25468E-3,0
STARLINK-33586,2025-035X,2026-06-06T00:58:46.729632,15.27617777,.0001969,43.0014,1.0363,262.8779,97.1848,0,U,63073,999,7332,.17995E-2,.49648E-3,0
STARLINK-33605,2025-035Y,2026-06-06T07:12:09.859968,15.27623815,.0003747,43.0043,6.4680,265.0697,94.9727,0,U,63074,999,7327,.88674934E-3,.24255E-3,0
ZHONGXING-10R,2025-036A,2026-06-06T13:57:00.705888,1.00270964,.00033309,0.0473,251.9722,249.1121,73.7086,0,U,63075,999,485,0,-.339E-5,0
STARLINK-32839,2025-037A,2026-06-06T04:07:21.971712,14.98330072,.0003328,70.0012,131.4511,265.1115,94.9664,0,U,63077,999,7184,.48354E-3,.5681E-4,0
STARLINK-32821,2025-037B,2026-06-06T04:07:07.753728,14.98337932,.0003519,70.0011,131.4461,264.8593,95.2164,0,U,63078,999,7183,.48779E-3,.5733E-4,0
STARLINK-32817,2025-037C,2026-06-06T05:01:11.442144,14.98343819,.00037102,70.0010,131.1728,260.8849,99.1890,0,U,63079,999,7185,.23909826E-3,.2762E-4,0
STARLINK-32906,2025-037D,2026-06-06T04:31:24.684960,14.98345055,.00026543,70.0015,131.5040,266.0095,94.0761,0,U,63080,999,7185,.53952857E-3,.6353E-4,0
STARLINK-32895,2025-037E,2026-06-06T04:25:10.066656,14.98338913,.0004142,70.0010,131.4922,262.3263,97.7426,0,U,63081,999,7171,.51601E-3,.6071E-4,0
STARLINK-32933,2025-037F,2026-06-06T15:02:17.718144,14.98341382,.00033722,70.0009,130.2192,267.0636,93.0137,0,U,63082,999,7186,.47601115E-3,.5593E-4,0
STARLINK-32932,2025-037G,2026-06-06T15:08:04.464672,14.98336923,.00043754,69.9986,130.2463,254.6070,105.4606,0,U,63083,999,7178,.79974168E-3,.9465E-4,0
STARLINK-32908,2025-037H,2026-06-06T14:56:01.522176,14.98338990,.00036979,70.0009,130.2072,267.5496,92.5239,0,U,63084,999,7178,.32300678E-3,.3764E-4,0
STARLINK-32505,2025-037J,2026-06-06T04:25:24.953376,14.98346882,.0004564,69.9997,131.4915,264.7130,95.3508,0,U,63085,999,7180,.90525E-3,.10731E-3,0
STARLINK-32914,2025-037K,2026-06-06T15:02:02.338080,14.98336394,.00033056,70.0009,130.2198,264.5538,95.5244,0,U,63086,999,7192,.24150808E-3,.279E-4,0
STARLINK-32918,2025-037L,2026-06-06T04:13:08.209344,14.98338061,.00041238,70.0008,131.4609,260.0085,100.0609,0,U,63087,999,7194,.32756734E-3,.3819E-4,0
STARLINK-32912,2025-037M,2026-06-06T04:43:25.273056,14.98349014,.00035615,70.0013,131.1353,268.8137,91.2614,0,U,63088,999,7196,.62981566E-3,.7434E-4,0
STARLINK-32910,2025-037N,2026-06-06T15:08:16.406016,14.98367351,.00039263,69.9997,130.2333,269.2299,90.8410,0,U,63089,999,7192,.10677684E-2,.12684E-3,0
STARLINK-32903,2025-037P,2026-06-06T04:37:09.317280,14.98333983,.00032958,70.0008,131.1227,263.5275,96.5509,0,U,63090,999,7172,.53736721E-3,.6325E-4,0
STARLINK-32925,2025-037Q,2026-06-06T04:43:10.162560,14.98325118,.00034971,70.0006,131.1317,263.8120,96.2640,0,U,63091,999,7180,-.10736876E-3,-.1374E-4,0
STARLINK-32924,2025-037R,2026-06-06T04:55:10.735968,14.98338039,.00038157,70.0006,131.1636,264.2595,95.8129,0,U,63092,999,7186,.3355067E-3,.3913E-4,0
STARLINK-32900,2025-037S,2026-06-06T05:13:12.904608,14.98352608,.00039009,70.0010,131.2046,264.6050,95.4664,0,U,63093,999,7172,.52426437E-3,.6172E-4,0
STARLINK-32927,2025-037T,2026-06-06T04:19:09.033024,14.98335651,.0004074,70.0009,131.4784,261.4208,98.6490,0,U,63094,999,7180,.28621E-3,.3324E-4,0
STARLINK-32907,2025-037U,2026-06-06T15:14:03.377184,14.98342544,.00038644,70.0008,130.2509,261.2051,98.8671,0,U,63095,999,7187,.56350984E-3,.664E-4,0
STARLINK-32911,2025-037V,2026-06-06T04:31:11.452800,14.98341928,.00024369,70.0007,131.5029,261.4522,98.6361,0,U,63096,999,7184,.51324348E-3,.6038E-4,0
STARLINK-32923,2025-037W,2026-06-06T04:49:09.384384,14.98336080,.00028946,70.0019,131.1501,271.4479,88.6349,0,U,63097,999,7186,-.41109046E-3,-.4995E-4,0
STARLINK-32913,2025-037X,2026-06-06T05:07:13.917792,14.98337570,.00036034,70.0015,131.1840,271.1648,88.9098,0,U,63098,999,7187,.85786217E-3,.1016E-3,0
STARLINK-11629 [DTC],2025-039A,2026-06-06T14:44:45.176928,15.70887194,.00007463,42.9987,60.6047,296.2104,63.8687,0,U,63104,999,7360,.17385332E-2,.22935E-2,0
STARLINK-11624 [DTC],2025-039B,2026-06-06T00:31:38.218368,15.70971050,.00019845,42.9989,64.7852,246.7950,113.2709,0,U,63105,999,7350,.19175435E-2,.254687E-2,0
STARLINK-11584 [DTC],2025-039C,2026-06-06T00:30:19.463040,15.70947101,.00019673,43.0027,64.7786,248.4876,111.5782,0,U,63106,999,7350,.15588551E-2,.205522E-2,0
STARLINK-11627 [DTC],2025-039D,2026-06-06T10:25:21.842976,15.71085087,.00029051,43.0000,61.8379,293.0564,66.9998,0,U,63107,999,7357,.29740266E-2,.404466E-2,0
