STARLINK-33623          
1 63072U 25035W   26157.27199850  .00025468  00000+0  93104-3 0  9999
2 63072  42.9978   7.1272 0000714  24.1393 335.9492 15.27607141 73270
STARLINK-33586          
1 63073U 25035X   26157.04081863  .00049648  00000+0  17995-2 0  9998
2 63073  43.0014   1.0363 0001969 262.8779  97.1848 15.27617777 73324
STARLINK-33605          
1 63074U 25035Y   26157.30011412  .00024255  00000+0  88675-3 0  9992
2 63074  43.0043   6.4680 0003747 265.0697  94.9727 15.27623815 73273
ZHONGXING-10R           
1 63075U 25036A   26157.58125817 -.00000339  00000+0  00000+0 0  9999
2 63075   0.0473 251.9722 0003330 249.1121  73.7086  1.00270964  4851
STARLINK-32839          
1 63077U 25037A   26157.17178208  .00005681  00000+0  48354-3 0  9991
2 63077  70.0012 131.4511 0003328 265.1115  94.9664 14.98330072 71843
STARLINK-32821          
1 63078U 25037B   26157.17161752  .00005733  00000+0  48779-3 0  9997
2 63078  70.0011 131.4461 0003519 264.8593  95.2164 14.98337932 71835
STARLINK-32817          
1 63079U 25037C   26157.20916021  .00002762  00000+0  23910-3 0  9998
2 63079  70.0010 131.1728 0003710 260.8849  99.1890 14.98343819 71853
STARLINK-32906          
1 63080U 25037D   26157.18848015  .00006353  00000+0  53953-3 0  9994
2 63080  70.0015 131.5040 0002654 266.0095  94.0761 14.98345055 71853
STARLINK-32895          
1 63081U 25037E   26157.18414429  .00006071  00000+0  51601-3 0  9998
2 63081  70.0010 131.4922 0004142 262.3263  97.7426 14.98338913 71715
STARLINK-32933          
1 63082U 25037F   26157.62659396  .00005593  00000+0  47601-3 0  9995
2 63082  70.0009 130.2192 0003372 267.0636  93.0137 14.98341382 71868
STARLINK-32932          
1 63083U 25037G   26157.63060723  .00009465  00000+0  79974-3 0  9997
2 63083  69.9986 130.2463 0004375 254.6070 105.4606 14.98336923 71784
STARLINK-32908          
1 63084U 25037H   26157.62223984  .00003764  00000+0  32301-3 0  9996
2 63084  70.0009 130.2072 0003697 267.5496  92.5239 14.98338990 71785
STARLINK-32505          
1 63085U 25037J   26157.18431659  .00010731  00000+0  90525-3 0  9992
2 63085  69.9997 131.4915 0004564 264.7130  95.3508 14.98346882 71808
STARLINK-32914          
1 63086U 25037K   26157.62641595  .00002790  00000+0  24151-3 0  9992
2 63086  70.0009 130.2198 0003305 264.5538  95.5244 14.98336394 71927
STARLINK-32918          
1 63087U 25037L   26157.17578946  .00003819  00000+0  32757-3 0  9996
2 63087  70.0008 131.4609 0004123 260.0085 100.0609 14.98338061 71946
STARLINK-32912          
1 63088U 25037M   26157.19682029  .00007434  00000+0  62982-3 0  9997
2 63088  70.0013 131.1353 0003561 268.8137  91.2614 14.98349014 71964
STARLINK-32910          
1 63089U 25037N   26157.63074544  .00012684  00000+0  10678-2 0  9991
2 63089  69.9997 130.2333 0003926 269.2299  90.8410 14.98367351 71929
STARLINK-32903          
1 63090U 25037P   26157.19246895  .00006325  00000+0  53737-3 0  9993
2 63090  70.0008 131.1227 0003295 263.5275  96.5509 14.98333983 71723
STARLINK-32925          
1 63091U 25037Q   26157.19664540 -.00001374  00000+0 -10737-3 0  9999
2 63091  70.0006 131.1317 0003497 263.8120  96.2640 14.98325118 71801
STARLINK-32924          
1 63092U 25037R   26157.20498537  .00003913  00000+0  33551-3 0  9991
2 63092  70.0006 131.1636 0003815 264.2595  95.8129 14.98338039 71860
STARLINK-32900          
1 63093U 25037S   26157.21751047  .00006172  00000+0  52426-3 0  9993
2 63093  70.0010 131.2046 0003900 264.6050  95.4664 14.98352608 71720
STARLINK-32927          
1 63094U 25037T   26157.17996566  .00003324  00000+0  28621-3 0  9992
2 63094  70.0009 131.4784 0004074 261.4208  98.6490 14.98335651 71803
STARLINK-32907          
1 63095U 25037U   26157.63476131  .00006640  00000+0  56351-3 0  9990
2 63095  70.0008 130.2509 0003864 261.2051  98.8671 14.98342544 71874
STARLINK-32911          
1 63096U 25037V   26157.18832700  .00006038  00000+0  51324-3 0  9995
2 63096  70.0007 131.5029 0002436 261.4522  98.6361 14.98341928 71840
STARLINK-32923          
1 63097U 25037W   26157.20080306 -.00004995  00000+0 -41109-3 0  9998
2 63097  70.0019 131.1501 0002894 271.4479  88.6349 14.98336080 71865
STARLINK-32913          
1 63098U 25037X   26157.21335553  .00010160  00000+0  85786-3 0  9995
2 63098  70.0015 131.1840 0003603 271.1648  88.9098 14.98337570 71872
STARLINK-11629 [DTC]    
1 63104U 25039A   26157.61441177  .00229350  00000+0  17385-2 0  9991
2 63104  42.9987  60.6047 0000746 296.2104  63.8687 15.70887194 73603
STARLINK-11624 [DTC]    
1 63105U 25039B   26157.02197012  .00254687  00000+0  19175-2 0  9993
2 63105  42.9989  64.7852 0001984 246.7950 113.2709 15.70971050 73508
STARLINK-11584 [DTC]    
1 63106U 25039C   26157.02105860  .00205522  00000+0  15589-2 0  9993
2 63106  43.0027  64.7786 0001967 248.4876 111.5782 15.70947101 73509
STARLINK-11627 [DTC]    
1 63107U 25039D   26157.43428059  .00404466  00000+0  29740-2 0  9999
2 63107  43.0000  61.8379 0002905 293.0564  66.9998 15.71085087 73576
